{
    "links": {
        "self": "http://www.neowsapp.com/rest/v1/neo/54053778?api_key=iIulBulltgU6a56xZRHN4H3l9WmuAYTsLGpBGhQ2"
    },
    "id": "54053778",
    "neo_reference_id": "54053778",
    "name": "(2020 RM1)",
    "designation": "2020 RM1",
    "nasa_jpl_url": "http://ssd.jpl.nasa.gov/sbdb.cgi?sstr=54053778",
    "absolute_magnitude_h": 26.418,
    "estimated_diameter": {
        "kilometers": {
            "estimated_diameter_min": 0.0138342295,
            "estimated_diameter_max": 0.0309342776
        },
        "meters": {
            "estimated_diameter_min": 13.8342295181,
            "estimated_diameter_max": 30.9342776188
        },
        "miles": {
            "estimated_diameter_min": 0.008596189,
            "estimated_diameter_max": 0.019221663
        },
        "feet": {
            "estimated_diameter_min": 45.3878935722,
            "estimated_diameter_max": 101.490415383
        }
    },
    "is_potentially_hazardous_asteroid": false,
    "close_approach_data": [
        {
            "close_approach_date": "2002-10-10",
            "close_approach_date_full": "2002-Oct-10 14:20",
            "epoch_date_close_approach": 1034259600000,
            "relative_velocity": {
                "kilometers_per_second": "22.2225085967",
                "kilometers_per_hour": "80001.0309480898",
                "miles_per_hour": "49709.5294799394"
            },
            "miss_distance": {
                "astronomical": "0.4416338727",
                "lunar": "171.7955764803",
                "kilometers": "66067486.675771149",
                "miles": "41052432.5937298962"
            },
            "orbiting_body": "Earth"
        },
        {
            "close_approach_date": "2011-09-27",
            "close_approach_date_full": "2011-Sep-27 18:18",
            "epoch_date_close_approach": 1317147480000,
            "relative_velocity": {
                "kilometers_per_second": "15.4141314041",
                "kilometers_per_hour": "55490.8730546455",
                "miles_per_hour": "34479.8705377602"
            },
            "miss_distance": {
                "astronomical": "0.2093874048",
                "lunar": "81.4517004672",
                "kilometers": "31323909.762907776",
                "miles": "19463774.9794322688"
            },
            "orbiting_body": "Earth"
        },
        {
            "close_approach_date": "2020-09-07",
            "close_approach_date_full": "2020-Sep-07 12:47",
            "epoch_date_close_approach": 1599482820000,
            "relative_velocity": {
                "kilometers_per_second": "9.5367104587",
                "kilometers_per_hour": "34332.157651462",
                "miles_per_hour": "21332.6676251543"
            },
            "miss_distance": {
                "astronomical": "0.0036887005",
                "lunar": "1.4349044945",
                "kilometers": "551821.737867935",
                "miles": "342886.128070103"
            },
            "orbiting_body": "Earth"
        },
        {
            "close_approach_date": "2020-09-07",
            "close_approach_date_full": "2020-Sep-07 20:32",
            "epoch_date_close_approach": 1599510720000,
            "relative_velocity": {
                "kilometers_per_second": "9.9754432878",
                "kilometers_per_hour": "35911.5958362452",
                "miles_per_hour": "22314.0690905825"
            },
            "miss_distance": {
                "astronomical": "0.0040156023",
                "lunar": "1.5620692947",
                "kilometers": "600725.550847101",
                "miles": "373273.5483719538"
            },
            "orbiting_body": "Moon"
        },
        {
            "close_approach_date": "2029-10-06",
            "close_approach_date_full": "2029-Oct-06 08:45",
            "epoch_date_close_approach": 1885970700000,
            "relative_velocity": {
                "kilometers_per_second": "19.7872134558",
                "kilometers_per_hour": "71233.9684409765",
                "miles_per_hour": "44262.017779339"
            },
            "miss_distance": {
                "astronomical": "0.3608126476",
                "lunar": "140.3561199164",
                "kilometers": "53976803.550020612",
                "miles": "33539630.4726519656"
            },
            "orbiting_body": "Earth"
        }
    ],
    "orbital_data": {
        "orbit_id": "6",
        "orbit_determination_date": "2020-09-25 06:31:10",
        "first_observation_date": "2020-09-08",
        "last_observation_date": "2020-09-22",
        "data_arc_in_days": 14,
        "observations_used": 87,
        "orbit_uncertainty": "7",
        "minimum_orbit_intersection": ".003668",
        "jupiter_tisserand_invariant": "4.059",
        "epoch_osculation": "2459000.5",
        "eccentricity": ".4463466677449684",
        "semi_major_axis": "1.712624439967438",
        "inclination": "6.236855765797485",
        "ascending_node_longitude": "346.4111465580937",
        "orbital_period": "818.6374962302954",
        "perihelion_distance": ".9482002280893793",
        "perihelion_argument": "321.9551463065336",
        "aphelion_distance": "2.477048651845496",
        "perihelion_time": "2459070.263525508455",
        "mean_anomaly": "329.3211350583207",
        "mean_motion": ".4397550828758111",
        "equinox": "J2000",
        "orbit_class": {
            "orbit_class_type": "APO",
            "orbit_class_description": "Near-Earth asteroid orbits which cross the Earth’s orbit similar to that of 1862 Apollo",
            "orbit_class_range": "a (semi-major axis) > 1.0 AU; q (perihelion) < 1.017 AU"
        }
    },
    "is_sentry_object": false
}